start=new Date('2021-09-17T00:00:00.000Z').valueOf();
sats=[{"ELEMENT_SET_NO":"999","ECCENTRICITY":"0.00062910","EPOCH":"2021-09-16T13:50:24.921312","CENTER_NAME":"EARTH","FILE":"3117438","BSTAR":"0.00005524900000","PERIAPSIS":"542.885","MEAN_ANOMALY":"269.6419","NORAD_CAT_ID":"46707","TIME_SYSTEM":"UTC","REV_AT_EPOCH":"5096","DECAY_DATE":null,"EPHEMERIS_TYPE":"0","INCLINATION":"53.0550","MEAN_MOTION_DOT":"0.00000540","TLE_LINE2":"2 46707  53.0550   1.9351 0006291  90.5291 269.6419 15.06390643 50961","LAUNCH_DATE":"2020-10-18","CLASSIFICATION_TYPE":"U","MEAN_MOTION_DDOT":"0.0000000000000","OBJECT_ID":"2020-073AP","PERIOD":"95.593","RCS_SIZE":"LARGE","MEAN_ELEMENT_THEORY":"SGP4","APOAPSIS":"551.599","REF_FRAME":"TEME","SITE":"AFETR","TLE_LINE1":"1 46707U 20073AP  21259.57667733  .00000540  00000-0  55249-4 0  9997","OBJECT_TYPE":"PAYLOAD","OBJECT_NAME":"STARLINK-1808","ARG_OF_PERICENTER":"90.5291","RA_OF_ASC_NODE":"1.9351","SEMIMAJOR_AXIS":"6925.377","MEAN_MOTION":"15.06390643","COUNTRY_CODE":"US","GP_ID":"184852389"},{"SEMIMAJOR_AXIS":"6925.354","GP_ID":"184853134","COUNTRY_CODE":"US","MEAN_MOTION":"15.06398253","MEAN_ELEMENT_THEORY":"SGP4","RCS_SIZE":"LARGE","OBJECT_ID":"2020-073AQ","MEAN_MOTION_DDOT":"0.0000000000000","PERIOD":"95.592","CLASSIFICATION_TYPE":"U","LAUNCH_DATE":"2020-10-18","TLE_LINE2":"2 46708  53.0564   1.8987 0005883  90.7724 269.3939 15.06398253 50969","RA_OF_ASC_NODE":"1.8987","OBJECT_TYPE":"PAYLOAD","ARG_OF_PERICENTER":"90.7724","OBJECT_NAME":"STARLINK-1809","TLE_LINE1":"1 46708U 20073AQ  21259.58035176  .00001231  00000-0  10165-3 0  9994","APOAPSIS":"551.293","REF_FRAME":"TEME","SITE":"AFETR","PERIAPSIS":"543.145","MEAN_ANOMALY":"269.3939","BSTAR":"0.00010165000000","CENTER_NAME":"EARTH","FILE":"3117438","MEAN_MOTION_DOT":"0.00001231","REV_AT_EPOCH":"5096","INCLINATION":"53.0564","DECAY_DATE":null,"EPHEMERIS_TYPE":"0","TIME_SYSTEM":"UTC","NORAD_CAT_ID":"46708","ECCENTRICITY":"0.00058830","EPOCH":"2021-09-16T13:55:42.392064","ELEMENT_SET_NO":"999"},{"CLASSIFICATION_TYPE":"U","LAUNCH_DATE":"2020-10-18","TLE_LINE2":"2 46709  53.0555  36.0283 0001347  96.2994 263.8149 15.06395381 50499","RCS_SIZE":"LARGE","MEAN_ELEMENT_THEORY":"SGP4","OBJECT_ID":"2020-073AR","MEAN_MOTION_DDOT":"0.0000000000000","PERIOD":"95.592","TLE_LINE1":"1 46709U 20073AR  21259.77338325  .00001102  00000-0  92886-4 0  9996","APOAPSIS":"548.161","REF_FRAME":"TEME","SITE":"AFETR","RA_OF_ASC_NODE":"36.0283","ARG_OF_PERICENTER":"96.2994","OBJECT_TYPE":"PAYLOAD","OBJECT_NAME":"STARLINK-1810","SEMIMAJOR_AXIS":"6925.363","MEAN_MOTION":"15.06395381","COUNTRY_CODE":"US","GP_ID":"184851388","ELEMENT_SET_NO":"999","ECCENTRICITY":"0.00013470","EPOCH":"2021-09-16T18:33:40.312800","BSTAR":"0.00009288600000","CENTER_NAME":"EARTH","FILE":"3117438","PERIAPSIS":"546.295","MEAN_ANOMALY":"263.8149","TIME_SYSTEM":"UTC","NORAD_CAT_ID":"46709","MEAN_MOTION_DOT":"0.00001102","REV_AT_EPOCH":"5049","EPHEMERIS_TYPE":"0","DECAY_DATE":null,"INCLINATION":"53.0555"},{"TLE_LINE1":"1 46710U 20073AS  21259.73746810 -.00000512  00000-0 -15473-4 0  9999","SITE":"AFETR","REF_FRAME":"TEME","APOAPSIS":"548.286","RA_OF_ASC_NODE":"36.2113","OBJECT_TYPE":"PAYLOAD","ARG_OF_PERICENTER":"91.9652","OBJECT_NAME":"STARLINK-1811","CLASSIFICATION_TYPE":"U","TLE_LINE2":"2 46710  53.0563  36.2113 0001505  91.9652 268.1509 15.06390103 50498","LAUNCH_DATE":"2020-10-18","RCS_SIZE":"LARGE","MEAN_ELEMENT_THEORY":"SGP4","PERIOD":"95.593","OBJECT_ID":"2020-073AS","MEAN_MOTION_DDOT":"0.0000000000000","MEAN_MOTION":"15.06390103","COUNTRY_CODE":"US","GP_ID":"184852137","SEMIMAJOR_AXIS":"6925.379","ELEMENT_SET_NO":"999","EPOCH":"2021-09-16T17:41:57.243840","ECCENTRICITY":"0.00015050","TIME_SYSTEM":"UTC","NORAD_CAT_ID":"46710","MEAN_MOTION_DOT":"-0.00000512","INCLINATION":"53.0563","DECAY_DATE":null,"EPHEMERIS_TYPE":"0","REV_AT_EPOCH":"5049","BSTAR":"-0.00001547300000","FILE":"3117438","CENTER_NAME":"EARTH","MEAN_ANOMALY":"268.1509","PERIAPSIS":"546.202"},{"TLE_LINE1":"1 46711U 20073AT  21259.64485760 -.00000320  00000-0 -25673-5 0  9995","APOAPSIS":"548.128","SITE":"AFETR","REF_FRAME":"TEME","RA_OF_ASC_NODE":"21.6277","ARG_OF_PERICENTER":"112.2993","OBJECT_TYPE":"PAYLOAD","OBJECT_NAME":"STARLINK-1813","CLASSIFICATION_TYPE":"U","LAUNCH_DATE":"2020-10-18","TLE_LINE2":"2 46711  53.0559  21.6277 0001290 112.2993 247.8133 15.06393003 50690","MEAN_ELEMENT_THEORY":"SGP4","RCS_SIZE":"LARGE","MEAN_MOTION_DDOT":"0.0000000000000","OBJECT_ID":"2020-073AT","PERIOD":"95.593","MEAN_MOTION":"15.06393003","COUNTRY_CODE":"US","GP_ID":"184852889","SEMIMAJOR_AXIS":"6925.370","ELEMENT_SET_NO":"999","ECCENTRICITY":"0.00012900","EPOCH":"2021-09-16T15:28:35.696640","TIME_SYSTEM":"UTC","NORAD_CAT_ID":"46711","MEAN_MOTION_DOT":"-0.00000320","REV_AT_EPOCH":"5069","DECAY_DATE":null,"INCLINATION":"53.0559","EPHEMERIS_TYPE":"0","BSTAR":"-0.00000256730000","CENTER_NAME":"EARTH","FILE":"3117438","PERIAPSIS":"546.342","MEAN_ANOMALY":"247.8133"},{"ECCENTRICITY":"0.00013070","EPOCH":"2021-09-16T17:50:32.298432","ELEMENT_SET_NO":"999","MEAN_MOTION_DOT":"-0.00000526","REV_AT_EPOCH":"5070","DECAY_DATE":null,"EPHEMERIS_TYPE":"0","INCLINATION":"53.0567","TIME_SYSTEM":"UTC","NORAD_CAT_ID":"46712","PERIAPSIS":"546.327","MEAN_ANOMALY":"255.1403","BSTAR":"-0.00001645000000","CENTER_NAME":"EARTH","FILE":"3117438","RA_OF_ASC_NODE":"21.1873","OBJECT_TYPE":"PAYLOAD","OBJECT_NAME":"STARLINK-1814","ARG_OF_PERICENTER":"104.9731","TLE_LINE1":"1 46712U 20073AU  21259.74342938 -.00000526  00000-0 -16450-4 0  9996","APOAPSIS":"548.138","SITE":"AFETR","REF_FRAME":"TEME","MEAN_ELEMENT_THEORY":"SGP4","RCS_SIZE":"LARGE","MEAN_MOTION_DDOT":"0.0000000000000","OBJECT_ID":"2020-073AU","PERIOD":"95.593","CLASSIFICATION_TYPE":"U","LAUNCH_DATE":"2020-10-18","TLE_LINE2":"2 46712  53.0567  21.1873 0001307 104.9731 255.1403 15.06393818 50702","GP_ID":"184852635","COUNTRY_CODE":"US","MEAN_MOTION":"15.06393818","SEMIMAJOR_AXIS":"6925.368"},{"MEAN_MOTION":"15.06395982","COUNTRY_CODE":"US","GP_ID":"184851888","SEMIMAJOR_AXIS":"6925.361","REF_FRAME":"TEME","SITE":"AFETR","APOAPSIS":"548.147","TLE_LINE1":"1 46713U 20073AV  21259.75543178  .00000146  00000-0  28674-4 0  9994","OBJECT_TYPE":"PAYLOAD","ARG_OF_PERICENTER":"106.8435","OBJECT_NAME":"STARLINK-1815","RA_OF_ASC_NODE":"21.1320","TLE_LINE2":"2 46713  53.0565  21.1320 0001330 106.8435 253.2700 15.06395982 50709","LAUNCH_DATE":"2020-10-18","CLASSIFICATION_TYPE":"U","PERIOD":"95.592","OBJECT_ID":"2020-073AV","MEAN_MOTION_DDOT":"0.0000000000000","MEAN_ELEMENT_THEORY":"SGP4","RCS_SIZE":"LARGE","NORAD_CAT_ID":"46713","TIME_SYSTEM":"UTC","EPHEMERIS_TYPE":"0","DECAY_DATE":null,"INCLINATION":"53.0565","REV_AT_EPOCH":"5070","MEAN_MOTION_DOT":"0.00000146","FILE":"3117438","CENTER_NAME":"EARTH","BSTAR":"0.00002867400000","MEAN_ANOMALY":"253.2700","PERIAPSIS":"546.305","ELEMENT_SET_NO":"999","EPOCH":"2021-09-16T18:07:49.305792","ECCENTRICITY":"0.00013300"},{"LAUNCH_DATE":"2020-10-18","TLE_LINE2":"2 46714  53.0569  21.1681 0001189 117.1794 242.9316 15.06395449 50705","CLASSIFICATION_TYPE":"U","MEAN_MOTION_DDOT":"0.0000000000000","OBJECT_ID":"2020-073AW","PERIOD":"95.592","MEAN_ELEMENT_THEORY":"SGP4","RCS_SIZE":"LARGE","APOAPSIS":"548.051","REF_FRAME":"TEME","SITE":"AFETR","TLE_LINE1":"1 46714U 20073AW  21259.74437782 -.00000538  00000-0 -17213-4 0  9991","ARG_OF_PERICENTER":"117.1794","OBJECT_TYPE":"PAYLOAD","OBJECT_NAME":"STARLINK-1816","RA_OF_ASC_NODE":"21.1681","SEMIMAJOR_AXIS":"6925.363","COUNTRY_CODE":"US","MEAN_MOTION":"15.06395449","GP_ID":"184851638","ELEMENT_SET_NO":"999","ECCENTRICITY":"0.00011890","EPOCH":"2021-09-16T17:51:54.243648","CENTER_NAME":"EARTH","FILE":"3117438","BSTAR":"-0.00001721300000","PERIAPSIS":"546.404","MEAN_ANOMALY":"242.9316","NORAD_CAT_ID":"46714","TIME_SYSTEM":"UTC","REV_AT_EPOCH":"5070","DECAY_DATE":null,"EPHEMERIS_TYPE":"0","INCLINATION":"53.0569","MEAN_MOTION_DOT":"-0.00000538"},{"BSTAR":"-0.00001963100000","FILE":"3117438","CENTER_NAME":"EARTH","MEAN_ANOMALY":"251.6927","PERIAPSIS":"546.321","TIME_SYSTEM":"UTC","NORAD_CAT_ID":"46715","MEAN_MOTION_DOT":"-0.00000574","INCLINATION":"53.0559","DECAY_DATE":null,"EPHEMERIS_TYPE":"0","REV_AT_EPOCH":"5068","ELEMENT_SET_NO":"999","ECCENTRICITY":"0.00013230","EPOCH":"2021-09-16T14:35:31.108416","SEMIMAJOR_AXIS":"6925.372","COUNTRY_CODE":"US","MEAN_MOTION":"15.06392318","GP_ID":"184852390","CLASSIFICATION_TYPE":"U","TLE_LINE2":"2 46715  53.0559  21.7896 0001323 108.4206 251.6927 15.06392318 50684","LAUNCH_DATE":"2020-10-18","RCS_SIZE":"LARGE","MEAN_ELEMENT_THEORY":"SGP4","PERIOD":"95.593","OBJECT_ID":"2020-073AX","MEAN_MOTION_DDOT":"0.0000000000000","TLE_LINE1":"1 46715U 20073AX  21259.60799894 -.00000574  00000-0 -19631-4 0  9998","SITE":"AFETR","REF_FRAME":"TEME","APOAPSIS":"548.153","RA_OF_ASC_NODE":"21.7896","ARG_OF_PERICENTER":"108.4206","OBJECT_TYPE":"PAYLOAD","OBJECT_NAME":"STARLINK-1817"},{"ELEMENT_SET_NO":"999","ECCENTRICITY":"0.00014510","EPOCH":"2021-09-16T19:44:01.612896","TIME_SYSTEM":"UTC","NORAD_CAT_ID":"46716","MEAN_MOTION_DOT":"-0.00000372","REV_AT_EPOCH":"5098","EPHEMERIS_TYPE":"0","DECAY_DATE":null,"INCLINATION":"53.0562","BSTAR":"-0.00000607140000","CENTER_NAME":"EARTH","FILE":"3117306","PERIAPSIS":"546.221","MEAN_ANOMALY":"249.4066","TLE_LINE1":"1 46716U 20073AY  21259.82224089 -.00000372  00000-0 -60714-5 0  9997","APOAPSIS":"548.230","SITE":"AFETR","REF_FRAME":"TEME","RA_OF_ASC_NODE":"35.8329","OBJECT_TYPE":"PAYLOAD","OBJECT_NAME":"STARLINK-1818","ARG_OF_PERICENTER":"110.7078","CLASSIFICATION_TYPE":"U","LAUNCH_DATE":"2020-10-18","TLE_LINE2":"2 46716  53.0562  35.8329 0001451 110.7078 249.4066 15.06396094 50988","RCS_SIZE":"LARGE","MEAN_ELEMENT_THEORY":"SGP4","MEAN_MOTION_DDOT":"0.0000000000000","OBJECT_ID":"2020-073AY","PERIOD":"95.592","COUNTRY_CODE":"US","MEAN_MOTION":"15.06396094","GP_ID":"184827544","SEMIMAJOR_AXIS":"6925.361"}];
